{"type": "FeatureCollection", "features": [ {"type": "Feature", "properties": {"norad_id": 34141, "name": "COSMOS 2251 DEB", "group": "cosmos-2251-debris", "lat": -47.011649622800576, "lon": -161.8526017539504, "alt_km": 762.1676423544195, "timestamp": "2025-12-27T23:26:37.757857+00:00", "meta": {"OBJECT_NAME": "COSMOS 2251 DEB", "OBJECT_ID": "1993-036LN", "EPOCH": "2025-12-27T09:43:26.840064", "MEAN_MOTION": 14.49390568, "ECCENTRICITY": 0.004652, "INCLINATION": 74.0119, "RA_OF_ASC_NODE": 1.3074, "ARG_OF_PERICENTER": 82.3122, "MEAN_ANOMALY": 45.3005, "EPHEMERIS_TYPE": 0, "CLASSIFICATION_TYPE": "U", "NORAD_CAT_ID": 34141, "ELEMENT_SET_NO": 999, "REV_AT_EPOCH": 87906, "BSTAR": 0.0015785, "MEAN_MOTION_DOT": 6.097e-05, "MEAN_MOTION_DDOT": 0}, "tle": {"line1": "1 34141U 93036LN  25361.40517176  .00006097  00000+0  15785-2 0  9991", "line2": "2 34141  74.0119   1.3074 0046520  82.3122  45.3005 14.49390568879063"}}, "geometry": {"type": "Point", "coordinates": [-161.8526017539504, -47.011649622800576]}}, {"type": "Feature", "properties": {"norad_id": 34270, "name": "COSMOS 2251 DEB", "group": "cosmos-2251-debris", "lat": -22.308662400715093, "lon": -89.49203994985105, "alt_km": 680.2500673244003, "timestamp": "2025-12-27T23:26:37.757868+00:00", "meta": {"OBJECT_NAME": "COSMOS 2251 DEB", "OBJECT_ID": "1993-036LQ", "EPOCH": "2025-12-27T03:53:10.681152", "MEAN_MOTION": 14.65266046, "ECCENTRICITY": 0.00482365, "INCLINATION": 74.0112, "RA_OF_ASC_NODE": 278.834, "ARG_OF_PERICENTER": 67.2275, "MEAN_ANOMALY": 293.3979, "EPHEMERIS_TYPE": 0, "CLASSIFICATION_TYPE": "U", "NORAD_CAT_ID": 34270, "ELEMENT_SET_NO": 999, "REV_AT_EPOCH": 89307, "BSTAR": 0.00048835023, "MEAN_MOTION_DOT": 2.647e-05, "MEAN_MOTION_DDOT": 0}, "tle": {"line1": "1 34270U 93036LQ  25361.16192918  .00002647  00000+0  48835-3 0  9990", "line2": "2 34270  74.0112 278.8340 0048236  67.2275 293.3979 14.65266046893076"}}, "geometry": {"type": "Point", "coordinates": [-89.49203994985105, -22.308662400715093]}}, {"type": "Feature", "properties": {"norad_id": 34271, "name": "COSMOS 2251 DEB", "group": "cosmos-2251-debris", "lat": -52.781434039961134, "lon": 11.879691611201459, "alt_km": 651.7799761429787, "timestamp": "2025-12-27T23:26:37.757878+00:00", "meta": {"OBJECT_NAME": "COSMOS 2251 DEB", "OBJECT_ID": "1993-036LR", "EPOCH": "2025-12-26T22:37:18.676128", "MEAN_MOTION": 14.71092305, "ECCENTRICITY": 0.0017998, "INCLINATION": 74.0214, "RA_OF_ASC_NODE": 171.7266, "ARG_OF_PERICENTER": 224.8235, "MEAN_ANOMALY": 295.8874, "EPHEMERIS_TYPE": 0, "CLASSIFICATION_TYPE": "U", "NORAD_CAT_ID": 34271, "ELEMENT_SET_NO": 999, "REV_AT_EPOCH": 88443, "BSTAR": 0.0027276, "MEAN_MOTION_DOT": 0.00016823, "MEAN_MOTION_DDOT": 0}, "tle": {"line1": "1 34271U 93036LR  25360.94257727  .00016823  00000+0  27276-2 0  9992", "line2": "2 34271  74.0214 171.7266 0017998 224.8235 295.8874 14.71092305884439"}}, "geometry": {"type": "Point", "coordinates": [11.879691611201459, -52.781434039961134]}}, {"type": "Feature", "properties": {"norad_id": 34273, "name": "COSMOS 2251 DEB", "group": "cosmos-2251-debris", "lat": 73.79272002710574, "lon": 138.30285305775152, "alt_km": 682.3547474948937, "timestamp": "2025-12-27T23:26:37.757888+00:00", "meta": {"OBJECT_NAME": "COSMOS 2251 DEB", "OBJECT_ID": "1993-036LT", "EPOCH": "2025-12-27T09:57:36.000864", "MEAN_MOTION": 14.61353977, "ECCENTRICITY": 0.00132, "INCLINATION": 74.0358, "RA_OF_ASC_NODE": 59.3656, "ARG_OF_PERICENTER": 184.5293, "MEAN_ANOMALY": 188.3672, "EPHEMERIS_TYPE": 0, "CLASSIFICATION_TYPE": "U", "NORAD_CAT_ID": 34273, "ELEMENT_SET_NO": 999, "REV_AT_EPOCH": 88836, "BSTAR": 0.00095017, "MEAN_MOTION_DOT": 4.676e-05, "MEAN_MOTION_DDOT": 0}, "tle": {"line1": "1 34273U 93036LT  25361.41500001  .00004676  00000+0  95017-3 0  9995", "line2": "2 34273  74.0358  59.3656 0013200 184.5293 188.3672 14.61353977888364"}}, "geometry": {"type": "Point", "coordinates": [138.30285305775152, 73.79272002710574]}}, {"type": "Feature", "properties": {"norad_id": 34274, "name": "COSMOS 2251 DEB", "group": "cosmos-2251-debris", "lat": 5.2815319383723365, "lon": 40.72681414979372, "alt_km": 694.0066039279427, "timestamp": "2025-12-27T23:26:37.757898+00:00", "meta": {"OBJECT_NAME": "COSMOS 2251 DEB", "OBJECT_ID": "1993-036LU", "EPOCH": "2025-12-27T12:30:09.686880", "MEAN_MOTION": 14.64947233, "ECCENTRICITY": 0.0021058, "INCLINATION": 74.004, "RA_OF_ASC_NODE": 40.0854, "ARG_OF_PERICENTER": 188.5612, "MEAN_ANOMALY": 293.8, "EPHEMERIS_TYPE": 0, "CLASSIFICATION_TYPE": "U", "NORAD_CAT_ID": 34274, "ELEMENT_SET_NO": 999, "REV_AT_EPOCH": 88892, "BSTAR": 0.0011156, "MEAN_MOTION_DOT": 5.965e-05, "MEAN_MOTION_DDOT": 0}, "tle": {"line1": "1 34274U 93036LU  25361.52094545  .00005965  00000+0  11156-2 0  9992", "line2": "2 34274  74.0040  40.0854 0021058 188.5612 293.8000 14.64947233888925"}}, "geometry": {"type": "Point", "coordinates": [40.72681414979372, 5.2815319383723365]}}, {"type": "Feature", "properties": {"norad_id": 34276, "name": "COSMOS 2251 DEB", "group": "cosmos-2251-debris", "lat": -62.549314771093094, "lon": -90.17960319484429, "alt_km": 697.7931055121908, "timestamp": "2025-12-27T23:26:37.757908+00:00", "meta": {"OBJECT_NAME": "COSMOS 2251 DEB", "OBJECT_ID": "1993-036LW", "EPOCH": "2025-12-27T04:19:52.540608", "MEAN_MOTION": 14.57320678, "ECCENTRICITY": 0.00219798, "INCLINATION": 74.0234, "RA_OF_ASC_NODE": 57.8637, "ARG_OF_PERICENTER": 203.2029, "MEAN_ANOMALY": 187.687, "EPHEMERIS_TYPE": 0, "CLASSIFICATION_TYPE": "U", "NORAD_CAT_ID": 34276, "ELEMENT_SET_NO": 999, "REV_AT_EPOCH": 88803, "BSTAR": 0.00077352311, "MEAN_MOTION_DOT": 3.486e-05, "MEAN_MOTION_DDOT": 0}, "tle": {"line1": "1 34276U 93036LW  25361.18046922  .00003486  00000+0  77352-3 0  9999", "line2": "2 34276  74.0234  57.8637 0021979 203.2029 187.6870 14.57320678888033"}}, "geometry": {"type": "Point", "coordinates": [-90.17960319484429, -62.549314771093094]}}, {"type": "Feature", "properties": {"norad_id": 34297, "name": "COSMOS 2251 DEB", "group": "cosmos-2251-debris", "lat": -26.838719000090034, "lon": 84.57533764278853, "alt_km": 780.1964176024057, "timestamp": "2025-12-27T23:26:37.757919+00:00", "meta": {"OBJECT_NAME": "COSMOS 2251 DEB", "OBJECT_ID": "1993-036MT", "EPOCH": "2025-12-27T04:39:15.278112", "MEAN_MOTION": 14.36641512, "ECCENTRICITY": 0.00178132, "INCLINATION": 74.0483, "RA_OF_ASC_NODE": 257.6913, "ARG_OF_PERICENTER": 323.8146, "MEAN_ANOMALY": 156.8191, "EPHEMERIS_TYPE": 0, "CLASSIFICATION_TYPE": "U", "NORAD_CAT_ID": 34297, "ELEMENT_SET_NO": 999, "REV_AT_EPOCH": 88272, "BSTAR": 0.00014554965, "MEAN_MOTION_DOT": 4.03e-06, "MEAN_MOTION_DDOT": 0}, "tle": {"line1": "1 34297U 93036MT  25361.19392683  .00000403  00000+0  14555-3 0  9993", "line2": "2 34297  74.0483 257.6913 0017813 323.8146 156.8191 14.36641512882724"}}, "geometry": {"type": "Point", "coordinates": [84.57533764278853, -26.838719000090034]}}, {"type": "Feature", "properties": {"norad_id": 34301, "name": "COSMOS 2251 DEB", "group": "cosmos-2251-debris", "lat": -70.97083770289687, "lon": 80.13507506027815, "alt_km": 618.1703866099451, "timestamp": "2025-12-27T23:26:37.757929+00:00", "meta": {"OBJECT_NAME": "COSMOS 2251 DEB", "OBJECT_ID": "1993-036MX", "EPOCH": "2025-12-27T11:09:39.950208", "MEAN_MOTION": 14.85327341, "ECCENTRICITY": 0.000951, "INCLINATION": 74.0058, "RA_OF_ASC_NODE": 137.4205, "ARG_OF_PERICENTER": 202.0472, "MEAN_ANOMALY": 222.8382, "EPHEMERIS_TYPE": 0, "CLASSIFICATION_TYPE": "U", "NORAD_CAT_ID": 34301, "ELEMENT_SET_NO": 999, "REV_AT_EPOCH": 88619, "BSTAR": 0.003855, "MEAN_MOTION_DOT": 0.00033304, "MEAN_MOTION_DDOT": 0}, "tle": {"line1": "1 34301U 93036MX  25361.46504572  .00033304  00000+0  38550-2 0  9997", "line2": "2 34301  74.0058 137.4205 0009510 202.0472 222.8382 14.85327341886198"}}, "geometry": {"type": "Point", "coordinates": [80.13507506027815, -70.97083770289687]}}, {"type": "Feature", "properties": {"norad_id": 34302, "name": "COSMOS 2251 DEB", "group": "cosmos-2251-debris", "lat": 31.258550178340233, "lon": 105.60919203226209, "alt_km": 754.0046045972313, "timestamp": "2025-12-27T23:26:37.757939+00:00", "meta": {"OBJECT_NAME": "COSMOS 2251 DEB", "OBJECT_ID": "1993-036MY", "EPOCH": "2025-12-27T10:33:58.235040", "MEAN_MOTION": 14.39387692, "ECCENTRICITY": 0.0079634, "INCLINATION": 74.1789, "RA_OF_ASC_NODE": 96.6795, "ARG_OF_PERICENTER": 307.8707, "MEAN_ANOMALY": 184.694, "EPHEMERIS_TYPE": 0, "CLASSIFICATION_TYPE": "U", "NORAD_CAT_ID": 34302, "ELEMENT_SET_NO": 999, "REV_AT_EPOCH": 87932, "BSTAR": 0.00071164, "MEAN_MOTION_DOT": 2.271e-05, "MEAN_MOTION_DDOT": 0}, "tle": {"line1": "1 34302U 93036MY  25361.44025735  .00002271  00000+0  71164-3 0  9993", "line2": "2 34302  74.1789  96.6795 0079634 307.8707 184.6940 14.39387692879326"}}, "geometry": {"type": "Point", "coordinates": [105.60919203226209, 31.258550178340233]}}, {"type": "Feature", "properties": {"norad_id": 34303, "name": "COSMOS 2251 DEB", "group": "cosmos-2251-debris", "lat": -32.97424045783102, "lon": -111.57017105847169, "alt_km": 679.2883216710443, "timestamp": "2025-12-27T23:26:37.757950+00:00", "meta": {"OBJECT_NAME": "COSMOS 2251 DEB", "OBJECT_ID": "1993-036MZ", "EPOCH": "2025-12-27T11:12:05.790816", "MEAN_MOTION": 14.54656579, "ECCENTRICITY": 0.0135716, "INCLINATION": 74.0046, "RA_OF_ASC_NODE": 260.1218, "ARG_OF_PERICENTER": 34.8401, "MEAN_ANOMALY": 142.0634, "EPHEMERIS_TYPE": 0, "CLASSIFICATION_TYPE": "U", "NORAD_CAT_ID": 34303, "ELEMENT_SET_NO": 999, "REV_AT_EPOCH": 88176, "BSTAR": 0.0016858, "MEAN_MOTION_DOT": 8.132e-05, "MEAN_MOTION_DDOT": 0}, "tle": {"line1": "1 34303U 93036MZ  25361.46673369  .00008132  00000+0  16858-2 0  9998", "line2": "2 34303  74.0046 260.1218 0135716  34.8401 142.0634 14.54656579881761"}}, "geometry": {"type": "Point", "coordinates": [-111.57017105847169, -32.97424045783102]}}]}